{
  "type": "FeatureCollection",
  "features": [
    {
      "type": "Feature",
      "properties": {
        "norad_id": 64751,
        "name": "PROGRESS-MS 31",
        "group": "stations",
        "lat": -6.903697704204893,
        "lon": 132.21592260364454,
        "alt_km": 420.22593922186024,
        "timestamp": "2025-12-13T16:48:31.488553+00:00",
        "meta_object_name": "PROGRESS-MS 31",
        "meta_object_id": "2025-146A",
        "meta_epoch": "2025-12-12T20:43:30.984384",
        "meta_mean_motion": 15.49550036,
        "meta_eccentricity": 0.00032451,
        "meta_inclination": 51.6304,
        "meta_ra_of_asc_node": 141.8664,
        "meta_arg_of_pericenter": 240.6311,
        "meta_mean_anomaly": 119.4354,
        "meta_ephemeris_type": 0,
        "meta_classification_type": "U",
        "meta_norad_cat_id": 64751,
        "meta_element_set_no": 999,
        "meta_rev_at_epoch": 675,
        "meta_bstar": 0.00025741225,
        "meta_mean_motion_dot": 0.00014033,
        "meta_mean_motion_ddot": 0,
        "tle_line1": "1 64751U 25146A   25346.86355306  .00014033  00000+0  25741-3 0  9999",
        "tle_line2": "2 64751  51.6304 141.8664 0003245 240.6311 119.4354 15.49550036  6758"
      },
      "geometry": {
        "type": "Point",
        "coordinates": [
          132.21592260364454,
          -6.903697704204893
        ]
      }
    },
    {
      "type": "Feature",
      "properties": {
        "norad_id": 64786,
        "name": "TIANZHOU-9",
        "group": "stations",
        "lat": 25.031287032518698,
        "lon": 158.95087876943225,
        "alt_km": 386.966350438518,
        "timestamp": "2025-12-13T16:48:31.488562+00:00",
        "meta_object_name": "TIANZHOU-9",
        "meta_object_id": "2025-149A",
        "meta_epoch": "2025-12-12T23:18:04.584096",
        "meta_mean_motion": 15.5917806,
        "meta_eccentricity": 0.00082454,
        "meta_inclination": 41.4684,
        "meta_ra_of_asc_node": 15.3046,
        "meta_arg_of_pericenter": 32.5257,
        "meta_mean_anomaly": 327.6088,
        "meta_ephemeris_type": 0,
        "meta_classification_type": "U",
        "meta_norad_cat_id": 64786,
        "meta_element_set_no": 999,
        "meta_rev_at_epoch": 25530,
        "meta_bstar": 0.00033032775,
        "meta_mean_motion_dot": 0.00026417,
        "meta_mean_motion_ddot": 0,
        "tle_line1": "1 64786U 25149A   25346.97088639  .00026417  00000+0  33033-3 0  9996",
        "tle_line2": "2 64786  41.4684  15.3046 0008245  32.5257 327.6088 15.59178060255303"
      },
      "geometry": {
        "type": "Point",
        "coordinates": [
          158.95087876943225,
          25.031287032518698
        ]
      }
    },
    {
      "type": "Feature",
      "properties": {
        "norad_id": 65077,
        "name": "CREW DRAGON 11",
        "group": "stations",
        "lat": -6.903696645996749,
        "lon": 132.2159234570841,
        "alt_km": 420.2259391487087,
        "timestamp": "2025-12-13T16:48:31.488574+00:00",
        "meta_object_name": "CREW DRAGON 11",
        "meta_object_id": "2025-166A",
        "meta_epoch": "2025-12-12T20:43:30.984384",
        "meta_mean_motion": 15.49550036,
        "meta_eccentricity": 0.00032451,
        "meta_inclination": 51.6304,
        "meta_ra_of_asc_node": 141.8664,
        "meta_arg_of_pericenter": 240.6311,
        "meta_mean_anomaly": 119.4354,
        "meta_ephemeris_type": 0,
        "meta_classification_type": "U",
        "meta_norad_cat_id": 65077,
        "meta_element_set_no": 999,
        "meta_rev_at_epoch": 214,
        "meta_bstar": 0.00025741225,
        "meta_mean_motion_dot": 0.00014033,
        "meta_mean_motion_ddot": 0,
        "tle_line1": "1 65077U 25166A   25346.86355306  .00014033  00000+0  25741-3 0  9993",
        "tle_line2": "2 65077  51.6304 141.8664 0003245 240.6311 119.4354 15.49550036  2149"
      },
      "geometry": {
        "type": "Point",
        "coordinates": [
          132.2159234570841,
          -6.903696645996749
        ]
      }
    },
    {
      "type": "Feature",
      "properties": {
        "norad_id": 65304,
        "name": "DRAGON CRS-33",
        "group": "stations",
        "lat": -6.903696091698015,
        "lon": 132.2159239041233,
        "alt_km": 420.22593911039075,
        "timestamp": "2025-12-13T16:48:31.488585+00:00",
        "meta_object_name": "DRAGON CRS-33",
        "meta_object_id": "2025-186A",
        "meta_epoch": "2025-12-12T20:43:30.984384",
        "meta_mean_motion": 15.49550036,
        "meta_eccentricity": 0.00032451,
        "meta_inclination": 51.6304,
        "meta_ra_of_asc_node": 141.8664,
        "meta_arg_of_pericenter": 240.6311,
        "meta_mean_anomaly": 119.4354,
        "meta_ephemeris_type": 0,
        "meta_classification_type": "U",
        "meta_norad_cat_id": 65304,
        "meta_element_set_no": 999,
        "meta_rev_at_epoch": 11,
        "meta_bstar": 0.00025741225,
        "meta_mean_motion_dot": 0.00014033,
        "meta_mean_motion_ddot": 0,
        "tle_line1": "1 65304U 25186A   25346.86355306  .00014033  00000+0  25741-3 0  9998",
        "tle_line2": "2 65304  51.6304 141.8664 0003245 240.6311 119.4354 15.49550036   117"
      },
      "geometry": {
        "type": "Point",
        "coordinates": [
          132.2159239041233,
          -6.903696091698015
        ]
      }
    },
    {
      "type": "Feature",
      "properties": {
        "norad_id": 65586,
        "name": "PROGRESS-MS 32",
        "group": "stations",
        "lat": -6.903695638181771,
        "lon": 132.21592426988187,
        "alt_km": 420.22593907903956,
        "timestamp": "2025-12-13T16:48:31.488594+00:00",
        "meta_object_name": "PROGRESS-MS 32",
        "meta_object_id": "2025-204A",
        "meta_epoch": "2025-12-12T20:43:30.984384",
        "meta_mean_motion": 15.49550036,
        "meta_eccentricity": 0.00032451,
        "meta_inclination": 51.6304,
        "meta_ra_of_asc_node": 141.8664,
        "meta_arg_of_pericenter": 240.6311,
        "meta_mean_anomaly": 119.4354,
        "meta_ephemeris_type": 0,
        "meta_classification_type": "U",
        "meta_norad_cat_id": 65586,
        "meta_element_set_no": 999,
        "meta_rev_at_epoch": 27,
        "meta_bstar": 0.00025741225,
        "meta_mean_motion_dot": 0.00014033,
        "meta_mean_motion_ddot": 0,
        "tle_line1": "1 65586U 25204A   25346.86355306  .00014033  00000+0  25741-3 0  9991",
        "tle_line2": "2 65586  51.6304 141.8664 0003245 240.6311 119.4354 15.49550036   276"
      },
      "geometry": {
        "type": "Point",
        "coordinates": [
          132.21592426988187,
          -6.903695638181771
        ]
      }
    },
    {
      "type": "Feature",
      "properties": {
        "norad_id": 65616,
        "name": "CYGNUS NG-23",
        "group": "stations",
        "lat": -6.903695033490497,
        "lon": 132.21592475756236,
        "alt_km": 420.2259390372383,
        "timestamp": "2025-12-13T16:48:31.488606+00:00",
        "meta_object_name": "CYGNUS NG-23",
        "meta_object_id": "2025-208A",
        "meta_epoch": "2025-12-12T20:43:30.984384",
        "meta_mean_motion": 15.49550036,
        "meta_eccentricity": 0.00032451,
        "meta_inclination": 51.6304,
        "meta_ra_of_asc_node": 141.8664,
        "meta_arg_of_pericenter": 240.6311,
        "meta_mean_anomaly": 119.4354,
        "meta_ephemeris_type": 0,
        "meta_classification_type": "U",
        "meta_norad_cat_id": 65616,
        "meta_element_set_no": 999,
        "meta_rev_at_epoch": 22,
        "meta_bstar": 0.00025741225,
        "meta_mean_motion_dot": 0.00014033,
        "meta_mean_motion_ddot": 0,
        "tle_line1": "1 65616U 25208A   25346.86355306  .00014033  00000+0  25741-3 0  9999",
        "tle_line2": "2 65616  51.6304 141.8664 0003245 240.6311 119.4354 15.49550036   225"
      },
      "geometry": {
        "type": "Point",
        "coordinates": [
          132.21592475756236,
          -6.903695033490497
        ]
      }
    },
    {
      "type": "Feature",
      "properties": {
        "norad_id": 65729,
        "name": "DRAGONFLY",
        "group": "stations",
        "lat": 35.26158535306139,
        "lon": 164.91825559087513,
        "alt_km": 350.30111887083785,
        "timestamp": "2025-12-13T16:48:31.488616+00:00",
        "meta_object_name": "DRAGONFLY",
        "meta_object_id": "1998-067XH",
        "meta_epoch": "2025-12-12T16:11:54.021120",
        "meta_mean_motion": 15.71879709,
        "meta_eccentricity": 0.0006787,
        "meta_inclination": 51.6248,
        "meta_ra_of_asc_node": 136.0967,
        "meta_arg_of_pericenter": 276.9077,
        "meta_mean_anomaly": 83.1148,
        "meta_ephemeris_type": 0,
        "meta_classification_type": "U",
        "meta_norad_cat_id": 65729,
        "meta_element_set_no": 999,
        "meta_rev_at_epoch": 1315,
        "meta_bstar": 0.001612676,
        "meta_mean_motion_dot": 0.00219639,
        "meta_mean_motion_ddot": 0,
        "tle_line1": "1 65729U 98067XH  25346.67493080  .00219639  00000+0  16127-2 0  9994",
        "tle_line2": "2 65729  51.6248 136.0967 0006787 276.9077  83.1148 15.71879709 13154"
      },
      "geometry": {
        "type": "Point",
        "coordinates": [
          164.91825559087513,
          35.26158535306139
        ]
      }
    }
  ]
}